start=new Date('2022-06-11T00:00:00.000Z').valueOf();
sats=[{"OBJECT_ID":"2022-022AD","MEAN_MOTION":"15.19761824","RA_OF_ASC_NODE":"19.6005","DECAY_DATE":null,"EPOCH":"2022-06-10T22:00:00.999936","CENTER_NAME":"EARTH","REV_AT_EPOCH":"130","TIME_SYSTEM":"UTC","RCS_SIZE":"LARGE","OBJECT_NAME":"STARLINK-3572","TLE_LINE1":"1 51879U 22022AD  22161.91667824 -.00723157  00000-0 -35827-1 0  9996","ECCENTRICITY":"0.00018090","COUNTRY_CODE":"US","OBJECT_TYPE":"PAYLOAD","NORAD_CAT_ID":"51879","BSTAR":"-0.03582700000000","LAUNCH_DATE":"2022-03-03","PERIOD":"94.752","FILE":"3490466","ELEMENT_SET_NO":"999","PERIAPSIS":"505.316","REF_FRAME":"TEME","TLE_LINE2":"2 51879  53.2172  19.6005 0001809  46.0976 136.6138 15.19761824  1309","MEAN_MOTION_DOT":"-0.00723157","EPHEMERIS_TYPE":"0","SEMIMAJOR_AXIS":"6884.697","INCLINATION":"53.2172","MEAN_ELEMENT_THEORY":"SGP4","GP_ID":"205866504","CLASSIFICATION_TYPE":"U","ARG_OF_PERICENTER":"46.0976","APOAPSIS":"507.807","MEAN_MOTION_DDOT":"0.0000000000000","MEAN_ANOMALY":"136.6138","SITE":"AFETR"},{"EPHEMERIS_TYPE":"0","SEMIMAJOR_AXIS":"6917.883","MEAN_ELEMENT_THEORY":"SGP4","INCLINATION":"53.2190","FILE":"3490466","ELEMENT_SET_NO":"999","PERIAPSIS":"538.309","REF_FRAME":"TEME","TLE_LINE2":"2 51880  53.2190  29.2979 0002080  49.2434  13.9440 15.08839248  1301","MEAN_MOTION_DOT":"-0.00008552","APOAPSIS":"541.187","MEAN_MOTION_DDOT":"0.0000000000000","MEAN_ANOMALY":"13.9440","SITE":"AFETR","GP_ID":"205866266","CLASSIFICATION_TYPE":"U","ARG_OF_PERICENTER":"49.2434","EPOCH":"2022-06-10T22:00:00.999936","DECAY_DATE":null,"REV_AT_EPOCH":"130","TIME_SYSTEM":"UTC","CENTER_NAME":"EARTH","RCS_SIZE":"LARGE","OBJECT_ID":"2022-022AE","MEAN_MOTION":"15.08839248","RA_OF_ASC_NODE":"29.2979","NORAD_CAT_ID":"51880","BSTAR":"-0.00051986000000","LAUNCH_DATE":"2022-03-03","PERIOD":"95.438","OBJECT_NAME":"STARLINK-3566","TLE_LINE1":"1 51880U 22022AE  22161.91667824 -.00008552  00000-0 -51986-3 0  9999","ECCENTRICITY":"0.00020800","COUNTRY_CODE":"US","OBJECT_TYPE":"PAYLOAD"},{"COUNTRY_CODE":"US","ECCENTRICITY":"0.00017730","TLE_LINE1":"1 51881U 22022AF  22161.91667824 -.00722319  00000-0 -35371-1 0  9992","OBJECT_NAME":"STARLINK-3504","OBJECT_TYPE":"PAYLOAD","NORAD_CAT_ID":"51881","PERIOD":"94.727","LAUNCH_DATE":"2022-03-03","BSTAR":"-0.03537100000000","MEAN_MOTION":"15.20157265","OBJECT_ID":"2022-022AF","RA_OF_ASC_NODE":"19.6090","REV_AT_EPOCH":"130","CENTER_NAME":"EARTH","TIME_SYSTEM":"UTC","DECAY_DATE":null,"EPOCH":"2022-06-10T22:00:00.999936","RCS_SIZE":"LARGE","CLASSIFICATION_TYPE":"U","GP_ID":"205866054","ARG_OF_PERICENTER":"48.5991","SITE":"AFETR","MEAN_ANOMALY":"163.7473","APOAPSIS":"506.588","MEAN_MOTION_DDOT":"0.0000000000000","ELEMENT_SET_NO":"999","FILE":"3490466","MEAN_MOTION_DOT":"-0.00722319","TLE_LINE2":"2 51881  53.2172  19.6090 0001773  48.5991 163.7473 15.20157265  1303","PERIAPSIS":"504.147","REF_FRAME":"TEME","INCLINATION":"53.2172","MEAN_ELEMENT_THEORY":"SGP4","SEMIMAJOR_AXIS":"6883.503","EPHEMERIS_TYPE":"0"},{"SEMIMAJOR_AXIS":"6885.294","EPHEMERIS_TYPE":"0","MEAN_ELEMENT_THEORY":"SGP4","INCLINATION":"53.2173","ELEMENT_SET_NO":"999","FILE":"3490466","PERIAPSIS":"505.930","REF_FRAME":"TEME","MEAN_MOTION_DOT":"-0.00723782","TLE_LINE2":"2 51882  53.2173  19.5961 0001784  46.1921 121.5635 15.19564232  1306","APOAPSIS":"508.387","MEAN_MOTION_DDOT":"0.0000000000000","MEAN_ANOMALY":"121.5635","SITE":"AFETR","GP_ID":"205866716","CLASSIFICATION_TYPE":"U","ARG_OF_PERICENTER":"46.1921","EPOCH":"2022-06-10T22:00:00.999936","DECAY_DATE":null,"REV_AT_EPOCH":"130","TIME_SYSTEM":"UTC","CENTER_NAME":"EARTH","RCS_SIZE":"LARGE","OBJECT_ID":"2022-022AG","MEAN_MOTION":"15.19564232","RA_OF_ASC_NODE":"19.5961","NORAD_CAT_ID":"51882","BSTAR":"-0.03606800000000","PERIOD":"94.764","LAUNCH_DATE":"2022-03-03","ECCENTRICITY":"0.00017840","TLE_LINE1":"1 51882U 22022AG  22161.91667824 -.00723782  00000-0 -36068-1 0  9992","OBJECT_NAME":"STARLINK-3570","COUNTRY_CODE":"US","OBJECT_TYPE":"PAYLOAD"},{"REV_AT_EPOCH":"130","TIME_SYSTEM":"UTC","CENTER_NAME":"EARTH","EPOCH":"2022-06-10T22:00:00.999936","DECAY_DATE":null,"RCS_SIZE":"LARGE","MEAN_MOTION":"15.20499227","OBJECT_ID":"2022-022AH","RA_OF_ASC_NODE":"19.6161","NORAD_CAT_ID":"51883","LAUNCH_DATE":"2022-03-03","PERIOD":"94.706","BSTAR":"-0.03500500000000","COUNTRY_CODE":"US","ECCENTRICITY":"0.00017740","TLE_LINE1":"1 51883U 22022AH  22161.91667824 -.00722069  00000-0 -35005-1 0  9990","OBJECT_NAME":"STARLINK-3576","OBJECT_TYPE":"PAYLOAD","INCLINATION":"53.2173","MEAN_ELEMENT_THEORY":"SGP4","EPHEMERIS_TYPE":"0","SEMIMAJOR_AXIS":"6882.471","FILE":"3490466","ELEMENT_SET_NO":"999","TLE_LINE2":"2 51883  53.2173  19.6161 0001774  47.8236 190.0695 15.20499227  1306","MEAN_MOTION_DOT":"-0.00722069","PERIAPSIS":"503.115","REF_FRAME":"TEME","MEAN_ANOMALY":"190.0695","SITE":"AFETR","MEAN_MOTION_DDOT":"0.0000000000000","APOAPSIS":"505.557","CLASSIFICATION_TYPE":"U","GP_ID":"205866160","ARG_OF_PERICENTER":"47.8236"},{"RA_OF_ASC_NODE":"19.6048","OBJECT_ID":"2022-022AJ","MEAN_MOTION":"15.19959542","RCS_SIZE":"LARGE","EPOCH":"2022-06-10T22:00:00.999936","DECAY_DATE":null,"REV_AT_EPOCH":"130","TIME_SYSTEM":"UTC","CENTER_NAME":"EARTH","OBJECT_TYPE":"PAYLOAD","ECCENTRICITY":"0.00017130","TLE_LINE1":"1 51884U 22022AJ  22161.91667824 -.00722759  00000-0 -35600-1 0  9998","OBJECT_NAME":"STARLINK-3577","COUNTRY_CODE":"US","BSTAR":"-0.03560000000000","LAUNCH_DATE":"2022-03-03","PERIOD":"94.739","NORAD_CAT_ID":"51884","PERIAPSIS":"504.786","REF_FRAME":"TEME","TLE_LINE2":"2 51884  53.2172  19.6048 0001713  51.2848 146.2903 15.19959542  1305","MEAN_MOTION_DOT":"-0.00722759","FILE":"3490466","ELEMENT_SET_NO":"999","EPHEMERIS_TYPE":"0","SEMIMAJOR_AXIS":"6884.100","INCLINATION":"53.2172","MEAN_ELEMENT_THEORY":"SGP4","ARG_OF_PERICENTER":"51.2848","GP_ID":"205866610","CLASSIFICATION_TYPE":"U","MEAN_MOTION_DDOT":"0.0000000000000","APOAPSIS":"507.144","SITE":"AFETR","MEAN_ANOMALY":"146.2903"},{"MEAN_MOTION_DOT":"-0.00722156","TLE_LINE2":"2 51885  53.2174  19.6209 0001880  41.9433 214.4163 15.20742080  1303","PERIAPSIS":"502.309","REF_FRAME":"TEME","ELEMENT_SET_NO":"999","FILE":"3490466","MEAN_ELEMENT_THEORY":"SGP4","INCLINATION":"53.2174","SEMIMAJOR_AXIS":"6881.738","EPHEMERIS_TYPE":"0","ARG_OF_PERICENTER":"41.9433","CLASSIFICATION_TYPE":"U","GP_ID":"205866400","SITE":"AFETR","MEAN_ANOMALY":"214.4163","MEAN_MOTION_DDOT":"0.0000000000000","APOAPSIS":"504.897","RA_OF_ASC_NODE":"19.6209","MEAN_MOTION":"15.20742080","OBJECT_ID":"2022-022AK","RCS_SIZE":"LARGE","TIME_SYSTEM":"UTC","REV_AT_EPOCH":"130","CENTER_NAME":"EARTH","DECAY_DATE":null,"EPOCH":"2022-06-10T22:00:00.999936","OBJECT_TYPE":"PAYLOAD","COUNTRY_CODE":"US","OBJECT_NAME":"STARLINK-3584","TLE_LINE1":"1 51885U 22022AK  22161.91667824 -.00722156  00000-0 -34760-1 0  9996","ECCENTRICITY":"0.00018800","PERIOD":"94.691","LAUNCH_DATE":"2022-03-03","BSTAR":"-0.03476000000000","NORAD_CAT_ID":"51885"},{"NORAD_CAT_ID":"51886","BSTAR":"-0.03515300000000","LAUNCH_DATE":"2022-03-03","PERIOD":"94.715","OBJECT_NAME":"STARLINK-3565","TLE_LINE1":"1 51886U 22022AL  22161.91667824 -.00722080  00000-0 -35153-1 0  9990","ECCENTRICITY":"0.00019330","COUNTRY_CODE":"US","OBJECT_TYPE":"PAYLOAD","DECAY_DATE":null,"EPOCH":"2022-06-10T22:00:00.999936","REV_AT_EPOCH":"130","TIME_SYSTEM":"UTC","CENTER_NAME":"EARTH","RCS_SIZE":"LARGE","OBJECT_ID":"2022-022AL","MEAN_MOTION":"15.20355103","RA_OF_ASC_NODE":"19.6132","MEAN_MOTION_DDOT":"0.0000000000000","APOAPSIS":"506.101","MEAN_ANOMALY":"185.3516","SITE":"AFETR","GP_ID":"205866372","CLASSIFICATION_TYPE":"U","ARG_OF_PERICENTER":"41.6740","EPHEMERIS_TYPE":"0","SEMIMAJOR_AXIS":"6882.906","INCLINATION":"53.2173","MEAN_ELEMENT_THEORY":"SGP4","FILE":"3490466","ELEMENT_SET_NO":"999","REF_FRAME":"TEME","PERIAPSIS":"503.440","TLE_LINE2":"2 51886  53.2173  19.6132 0001933  41.6740 185.3516 15.20355103  1309","MEAN_MOTION_DOT":"-0.00722080"},{"MEAN_ELEMENT_THEORY":"SGP4","INCLINATION":"53.2174","SEMIMAJOR_AXIS":"6881.140","EPHEMERIS_TYPE":"0","MEAN_MOTION_DOT":"-0.00722556","TLE_LINE2":"2 51887  53.2174  19.6249 0001956  38.2452 232.5212 15.20940246  1303","PERIAPSIS":"501.659","REF_FRAME":"TEME","ELEMENT_SET_NO":"999","FILE":"3490466","SITE":"AFETR","MEAN_ANOMALY":"232.5212","APOAPSIS":"504.351","MEAN_MOTION_DDOT":"0.0000000000000","ARG_OF_PERICENTER":"38.2452","CLASSIFICATION_TYPE":"U","GP_ID":"205866505","RCS_SIZE":"LARGE","REV_AT_EPOCH":"130","TIME_SYSTEM":"UTC","CENTER_NAME":"EARTH","EPOCH":"2022-06-10T22:00:00.999936","DECAY_DATE":null,"RA_OF_ASC_NODE":"19.6249","MEAN_MOTION":"15.20940246","OBJECT_ID":"2022-022AM","PERIOD":"94.678","LAUNCH_DATE":"2022-03-03","BSTAR":"-0.03457800000000","NORAD_CAT_ID":"51887","OBJECT_TYPE":"PAYLOAD","COUNTRY_CODE":"US","TLE_LINE1":"1 51887U 22022AM  22161.91667824 -.00722556  00000-0 -34578-1 0  9999","OBJECT_NAME":"STARLINK-3551","ECCENTRICITY":"0.00019560"},{"RCS_SIZE":"LARGE","REV_AT_EPOCH":"130","TIME_SYSTEM":"UTC","CENTER_NAME":"EARTH","EPOCH":"2022-06-10T22:00:00.999936","DECAY_DATE":null,"RA_OF_ASC_NODE":"19.6168","MEAN_MOTION":"15.20544093","OBJECT_ID":"2022-022AN","PERIOD":"94.703","LAUNCH_DATE":"2022-03-03","BSTAR":"-0.03496200000000","NORAD_CAT_ID":"51888","OBJECT_TYPE":"PAYLOAD","COUNTRY_CODE":"US","TLE_LINE1":"1 51888U 22022AN  22161.91667824 -.00722123  00000-0 -34962-1 0  9997","ECCENTRICITY":"0.00017230","OBJECT_NAME":"STARLINK-3536","INCLINATION":"53.2173","MEAN_ELEMENT_THEORY":"SGP4","SEMIMAJOR_AXIS":"6882.335","EPHEMERIS_TYPE":"0","MEAN_MOTION_DOT":"-0.00722123","TLE_LINE2":"2 51888  53.2173  19.6168 0001723  49.7677 192.0931 15.20544093  1309","PERIAPSIS":"503.015","REF_FRAME":"TEME","ELEMENT_SET_NO":"999","FILE":"3490466","MEAN_ANOMALY":"192.0931","SITE":"AFETR","MEAN_MOTION_DDOT":"0.0000000000000","APOAPSIS":"505.386","ARG_OF_PERICENTER":"49.7677","CLASSIFICATION_TYPE":"U","GP_ID":"205866267"}];
